CCSDS_OMM_VERS = 2.0
CREATION_DATE  = 
ORIGINATOR     = 

OBJECT_NAME    = SL-14 R/B
OBJECT_ID      = 1986-046B
CENTER_NAME    = EARTH
REF_FRAME      = TEME
TIME_SYSTEM    = UTC
MEAN_ELEMENT_THEORY = SGP/SGP4

EPOCH          = 2026-02-23T02:58:21.470304
MEAN_MOTION    = 14.85574917
ECCENTRICITY   = .00215513
INCLINATION    = 82.4793
RA_OF_ASC_NODE = 93.9485
ARG_OF_PERICENTER = 276.5230
MEAN_ANOMALY   = 83.3532

EPHEMERIS_TYPE = 0
CLASSIFICATION_TYPE = U
NORAD_CAT_ID   = 16792
ELEMENT_SET_NO = 999
REV_AT_EPOCH   = 12424
BSTAR          = .4785893E-4
MEAN_MOTION_DOT = .439E-5
MEAN_MOTION_DDOT = 0

CCSDS_OMM_VERS = 2.0
CREATION_DATE  = 
ORIGINATOR     = 

OBJECT_NAME    = SL-14 R/B
OBJECT_ID      = 1986-055B
CENTER_NAME    = EARTH
REF_FRAME      = TEME
TIME_SYSTEM    = UTC
MEAN_ELEMENT_THEORY = SGP/SGP4

EPOCH          = 2026-02-23T05:56:37.290912
MEAN_MOTION    = 14.85627524
ECCENTRICITY   = .00194435
INCLINATION    = 82.5227
RA_OF_ASC_NODE = 140.2460
ARG_OF_PERICENTER = 24.4288
MEAN_ANOMALY   = 359.4340

EPHEMERIS_TYPE = 0
CLASSIFICATION_TYPE = U
NORAD_CAT_ID   = 16882
ELEMENT_SET_NO = 999
REV_AT_EPOCH   = 11722
BSTAR          = .56330147E-4
MEAN_MOTION_DOT = .513E-5
MEAN_MOTION_DDOT = 0

CCSDS_OMM_VERS = 2.0
CREATION_DATE  = 
ORIGINATOR     = 

OBJECT_NAME    = AJISAI (EGS)
OBJECT_ID      = 1986-061A
CENTER_NAME    = EARTH
REF_FRAME      = TEME
TIME_SYSTEM    = UTC
MEAN_ELEMENT_THEORY = SGP/SGP4

EPOCH          = 2026-02-23T06:05:46.627296
MEAN_MOTION    = 12.44515450
ECCENTRICITY   = .00112334
INCLINATION    = 50.0086
RA_OF_ASC_NODE = 137.7382
ARG_OF_PERICENTER = 249.8226
MEAN_ANOMALY   = 151.5723

EPHEMERIS_TYPE = 0
CLASSIFICATION_TYPE = U
NORAD_CAT_ID   = 16908
ELEMENT_SET_NO = 999
REV_AT_EPOCH   = 46620
BSTAR          = .10677662E-3
MEAN_MOTION_DOT = -.82E-6
MEAN_MOTION_DDOT = 0

CCSDS_OMM_VERS = 2.0
CREATION_DATE  = 
ORIGINATOR     = 

OBJECT_NAME    = COSMOS 1812
OBJECT_ID      = 1987-003A
CENTER_NAME    = EARTH
REF_FRAME      = TEME
TIME_SYSTEM    = UTC
MEAN_ELEMENT_THEORY = SGP/SGP4

EPOCH          = 2026-02-23T02:56:25.751328
MEAN_MOTION    = 16.06629284
ECCENTRICITY   = .00048502
INCLINATION    = 82.4737
RA_OF_ASC_NODE = 212.2921
ARG_OF_PERICENTER = 292.3920
MEAN_ANOMALY   = 67.6847

EPHEMERIS_TYPE = 0
CLASSIFICATION_TYPE = U
NORAD_CAT_ID   = 17295
ELEMENT_SET_NO = 999
REV_AT_EPOCH   = 14213
BSTAR          = .84715769E-3
MEAN_MOTION_DOT = .634455E-2
MEAN_MOTION_DDOT = .19909438E-3

CCSDS_OMM_VERS = 2.0
CREATION_DATE  = 
ORIGINATOR     = 

OBJECT_NAME    = SL-14 R/B
OBJECT_ID      = 1987-024B
CENTER_NAME    = EARTH
REF_FRAME      = TEME
TIME_SYSTEM    = UTC
MEAN_ELEMENT_THEORY = SGP/SGP4

EPOCH          = 2026-02-23T03:54:06.843744
MEAN_MOTION    = 14.86117355
ECCENTRICITY   = .00170097
INCLINATION    = 82.5267
RA_OF_ASC_NODE = 106.4199
ARG_OF_PERICENTER = 312.2385
MEAN_ANOMALY   = 47.7387

EPHEMERIS_TYPE = 0
CLASSIFICATION_TYPE = U
NORAD_CAT_ID   = 17567
ELEMENT_SET_NO = 999
REV_AT_EPOCH   = 8597
BSTAR          = .4771555E-4
MEAN_MOTION_DOT = .443E-5
MEAN_MOTION_DDOT = 0

CCSDS_OMM_VERS = 2.0
CREATION_DATE  = 
ORIGINATOR     = 

OBJECT_NAME    = COSMOS 1833
OBJECT_ID      = 1987-027A
CENTER_NAME    = EARTH
REF_FRAME      = TEME
TIME_SYSTEM    = UTC
MEAN_ELEMENT_THEORY = SGP/SGP4

EPOCH          = 2026-02-23T04:57:50.797152
MEAN_MOTION    = 14.13057124
ECCENTRICITY   = .00247964
INCLINATION    = 70.9234
RA_OF_ASC_NODE = 356.4548
ARG_OF_PERICENTER = 234.3624
MEAN_ANOMALY   = 125.5188

EPHEMERIS_TYPE = 0
CLASSIFICATION_TYPE = U
NORAD_CAT_ID   = 17589
ELEMENT_SET_NO = 999
REV_AT_EPOCH   = 827
BSTAR          = -.17116533E-4
MEAN_MOTION_DOT = -.8E-6
MEAN_MOTION_DDOT = 0

CCSDS_OMM_VERS = 2.0
CREATION_DATE  = 
ORIGINATOR     = 

OBJECT_NAME    = SL-16 R/B
OBJECT_ID      = 1987-027B
CENTER_NAME    = EARTH
REF_FRAME      = TEME
TIME_SYSTEM    = UTC
MEAN_ELEMENT_THEORY = SGP/SGP4

EPOCH          = 2026-02-23T03:38:43.126656
MEAN_MOTION    = 14.17166529
ECCENTRICITY   = .00041898
INCLINATION    = 71.0035
RA_OF_ASC_NODE = 307.1311
ARG_OF_PERICENTER = 170.1175
MEAN_ANOMALY   = 190.0032

EPHEMERIS_TYPE = 0
CLASSIFICATION_TYPE = U
NORAD_CAT_ID   = 17590
ELEMENT_SET_NO = 999
REV_AT_EPOCH   = 1328
BSTAR          = .10751272E-3
MEAN_MOTION_DOT = .169E-5
MEAN_MOTION_DDOT = 0

CCSDS_OMM_VERS = 2.0
CREATION_DATE  = 
ORIGINATOR     = 

OBJECT_NAME    = SL-14 R/B
OBJECT_ID      = 1987-038B
CENTER_NAME    = EARTH
REF_FRAME      = TEME
TIME_SYSTEM    = UTC
MEAN_ELEMENT_THEORY = SGP/SGP4

EPOCH          = 2026-02-23T03:36:05.856192
MEAN_MOTION    = 14.85354786
ECCENTRICITY   = .00184171
INCLINATION    = 82.5028
RA_OF_ASC_NODE = 310.5034
ARG_OF_PERICENTER = 208.8378
MEAN_ANOMALY   = 151.1822

EPHEMERIS_TYPE = 0
CLASSIFICATION_TYPE = U
NORAD_CAT_ID   = 17912
ELEMENT_SET_NO = 999
REV_AT_EPOCH   = 7707
BSTAR          = .4815197E-4
MEAN_MOTION_DOT = .439E-5
MEAN_MOTION_DDOT = 0

CCSDS_OMM_VERS = 2.0
CREATION_DATE  = 
ORIGINATOR     = 

OBJECT_NAME    = COSMOS 1844
OBJECT_ID      = 1987-041A
CENTER_NAME    = EARTH
REF_FRAME      = TEME
TIME_SYSTEM    = UTC
MEAN_ELEMENT_THEORY = SGP/SGP4

EPOCH          = 2026-02-23T02:46:57.902880
MEAN_MOTION    = 14.14552153
ECCENTRICITY   = .00292745
INCLINATION    = 70.8985
RA_OF_ASC_NODE = 64.9157
ARG_OF_PERICENTER = 40.6723
MEAN_ANOMALY   = 319.6577

EPHEMERIS_TYPE = 0
CLASSIFICATION_TYPE = U
NORAD_CAT_ID   = 17973
ELEMENT_SET_NO = 999
REV_AT_EPOCH   = 152
BSTAR          = .90947211E-4
MEAN_MOTION_DOT = .127E-5
MEAN_MOTION_DDOT = 0

CCSDS_OMM_VERS = 2.0
CREATION_DATE  = 
ORIGINATOR     = 

OBJECT_NAME    = SL-14 R/B
OBJECT_ID      = 1987-055B
CENTER_NAME    = EARTH
REF_FRAME      = TEME
TIME_SYSTEM    = UTC
MEAN_ELEMENT_THEORY = SGP/SGP4

EPOCH          = 2026-02-23T06:20:33.726336
MEAN_MOTION    = 14.85609535
ECCENTRICITY   = .00221283
INCLINATION    = 82.5018
RA_OF_ASC_NODE = 2.6231
ARG_OF_PERICENTER = 63.2468
MEAN_ANOMALY   = 297.1009

EPHEMERIS_TYPE = 0
CLASSIFICATION_TYPE = U
NORAD_CAT_ID   = 18153
ELEMENT_SET_NO = 999
REV_AT_EPOCH   = 6779
BSTAR          = .65956856E-4
MEAN_MOTION_DOT = .598E-5
MEAN_MOTION_DDOT = 0

CCSDS_OMM_VERS = 2.0
CREATION_DATE  = 
ORIGINATOR     = 

OBJECT_NAME    = COSMOS 1867
OBJECT_ID      = 1987-060A
CENTER_NAME    = EARTH
REF_FRAME      = TEME
TIME_SYSTEM    = UTC
MEAN_ELEMENT_THEORY = SGP/SGP4

EPOCH          = 2026-02-23T06:13:28.912224
MEAN_MOTION    = 14.31500550
ECCENTRICITY   = .00142952
INCLINATION    = 65.0127
RA_OF_ASC_NODE = 347.1156
ARG_OF_PERICENTER = 277.7769
MEAN_ANOMALY   = 82.1692

EPHEMERIS_TYPE = 0
CLASSIFICATION_TYPE = U
NORAD_CAT_ID   = 18187
ELEMENT_SET_NO = 999
REV_AT_EPOCH   = 1787
BSTAR          = .25993808E-4
MEAN_MOTION_DOT = -.31E-6
MEAN_MOTION_DDOT = 0

CCSDS_OMM_VERS = 2.0
CREATION_DATE  = 
ORIGINATOR     = 

OBJECT_NAME    = SL-14 R/B
OBJECT_ID      = 1988-001B
CENTER_NAME    = EARTH
REF_FRAME      = TEME
TIME_SYSTEM    = UTC
MEAN_ELEMENT_THEORY = SGP/SGP4

EPOCH          = 2026-02-22T22:07:20.773344
MEAN_MOTION    = 14.85507658
ECCENTRICITY   = .0016666
INCLINATION    = 82.5124
RA_OF_ASC_NODE = 209.2482
ARG_OF_PERICENTER = 288.9362
MEAN_ANOMALY   = 71.0048

EPHEMERIS_TYPE = 0
CLASSIFICATION_TYPE = U
NORAD_CAT_ID   = 18749
ELEMENT_SET_NO = 999
REV_AT_EPOCH   = 3983
BSTAR          = .63461E-4
MEAN_MOTION_DOT = .573E-5
MEAN_MOTION_DDOT = 0

