SL-14 R/B               
1 16792U 86046B   26054.12385961  .00000439  00000+0  47859-4 0  9993
2 16792  82.4793  93.9485 0021551 276.5230  83.3532 14.85574917124245
SL-14 R/B               
1 16882U 86055B   26054.24765383  .00000513  00000+0  56330-4 0  9993
2 16882  82.5227 140.2460 0019443  24.4288 359.4340 14.85627524117224
AJISAI (EGS)            
1 16908U 86061A   26054.25401189 -.00000082  00000+0  10678-3 0  9997
2 16908  50.0086 137.7382 0011233 249.8226 151.5723 12.44515450466202
COSMOS 1812             
1 17295U 87003A   26054.12252027  .00634455  19909-3  84716-3 0  9997
2 17295  82.4737 212.2921 0004850 292.3920  67.6847 16.06629284142133
SL-14 R/B               
1 17567U 87024B   26054.16257921  .00000443  00000+0  47716-4 0  9996
2 17567  82.5267 106.4199 0017009 312.2385  47.7387 14.86117355 85975
COSMOS 1833             
1 17589U 87027A   26054.20683793 -.00000080  00000+0 -17117-4 0  9999
2 17589  70.9234 356.4548 0024796 234.3624 125.5188 14.13057124  8279
SL-16 R/B               
1 17590U 87027B   26054.15188804  .00000169  00000+0  10751-3 0  9990
2 17590  71.0035 307.1311 0004189 170.1175 190.0032 14.17166529 13281
SL-14 R/B               
1 17912U 87038B   26054.15006778  .00000439  00000+0  48152-4 0  9996
2 17912  82.5028 310.5034 0018417 208.8378 151.1822 14.85354786 77072
COSMOS 1844             
1 17973U 87041A   26054.11594795  .00000127  00000+0  90947-4 0  9997
2 17973  70.8985  64.9157 0029274  40.6723 319.6577 14.14552153  1521
SL-14 R/B               
1 18153U 87055B   26054.26427924  .00000598  00000+0  65957-4 0  9993
2 18153  82.5018   2.6231 0022128  63.2468 297.1009 14.85609535 67795
COSMOS 1867             
1 18187U 87060A   26054.25936241 -.00000031  00000+0  25994-4 0  9992
2 18187  65.0127 347.1156 0014295 277.7769  82.1692 14.31500550 17876
SL-14 R/B               
1 18749U 88001B   26053.92176821  .00000573  00000+0  63461-4 0  9996
2 18749  82.5124 209.2482 0016666 288.9362  71.0048 14.85507658 39835
